start=new Date('2022-01-09T00:00:00.000Z').valueOf();
sats=[{"EPOCH":"2022-01-08T11:42:59.972832","ELEMENT_SET_NO":"999","APOAPSIS":"508.847","EPHEMERIS_TYPE":"0","MEAN_ANOMALY":"310.8734","PERIOD":"94.774","RCS_SIZE":"LARGE","REF_FRAME":"TEME","ARG_OF_PERICENTER":"49.2410","OBJECT_ID":"2021-024M","CLASSIFICATION_TYPE":"U","OBJECT_NAME":"STARLINK-2306","FILE":"3267276","ECCENTRICITY":"0.00017220","RA_OF_ASC_NODE":"298.1076","REV_AT_EPOCH":"4560","MEAN_MOTION_DOT":"0.00061785","LAUNCH_DATE":"2021-03-24","INCLINATION":"53.0592","MEAN_MOTION_DDOT":"0.0000000000000","MEAN_ELEMENT_THEORY":"SGP4","OBJECT_TYPE":"PAYLOAD","DECAY_DATE":null,"CENTER_NAME":"EARTH","NORAD_CAT_ID":"47988","TLE_LINE2":"2 47988  53.0592 298.1076 0001722  49.2410 310.8734 15.19397997 45608","PERIAPSIS":"506.475","MEAN_MOTION":"15.19397997","SEMIMAJOR_AXIS":"6885.796","GP_ID":"193461368","SITE":"AFETR","TLE_LINE1":"1 47988U 21024M   22008.48819413  .00061785  00000-0  28734-2 0  9998","BSTAR":"0.00287340000000","TIME_SYSTEM":"UTC","COUNTRY_CODE":"US"},{"NORAD_CAT_ID":"47989","TLE_LINE2":"2 47989  53.0527 233.6260 0002858  63.6520 215.9318 15.06404300  3586","PERIAPSIS":"545.221","OBJECT_TYPE":"PAYLOAD","MEAN_ELEMENT_THEORY":"SGP4","MEAN_MOTION_DDOT":"0.0000000000000","INCLINATION":"53.0527","CENTER_NAME":"EARTH","DECAY_DATE":null,"BSTAR":"-0.00051707000000","TLE_LINE1":"1 47989U 21024N   22008.91667824 -.00007977  00000-0 -51707-3 0  9996","TIME_SYSTEM":"UTC","COUNTRY_CODE":"US","MEAN_MOTION":"15.06404300","SITE":"AFETR","GP_ID":"193490461","SEMIMAJOR_AXIS":"6925.335","RCS_SIZE":"LARGE","PERIOD":"95.592","REF_FRAME":"TEME","OBJECT_ID":"2021-024N","ARG_OF_PERICENTER":"63.6520","ELEMENT_SET_NO":"999","APOAPSIS":"549.180","EPHEMERIS_TYPE":"0","EPOCH":"2022-01-08T22:00:00.999936","MEAN_ANOMALY":"215.9318","REV_AT_EPOCH":"358","MEAN_MOTION_DOT":"-0.00007977","LAUNCH_DATE":"2021-03-24","CLASSIFICATION_TYPE":"U","OBJECT_NAME":"STARLINK-2305","FILE":"3267514","ECCENTRICITY":"0.00028580","RA_OF_ASC_NODE":"233.6260"},{"MEAN_ANOMALY":"106.7184","APOAPSIS":"548.655","EPHEMERIS_TYPE":"0","ELEMENT_SET_NO":"999","EPOCH":"2022-01-08T22:00:00.999936","OBJECT_ID":"2021-024P","ARG_OF_PERICENTER":"67.7369","REF_FRAME":"TEME","RCS_SIZE":"LARGE","PERIOD":"95.592","RA_OF_ASC_NODE":"233.6529","ECCENTRICITY":"0.00021160","FILE":"3267514","OBJECT_NAME":"STARLINK-2307","CLASSIFICATION_TYPE":"U","LAUNCH_DATE":"2021-03-24","MEAN_MOTION_DOT":"-0.00014017","REV_AT_EPOCH":"358","CENTER_NAME":"EARTH","DECAY_DATE":null,"MEAN_ELEMENT_THEORY":"SGP4","OBJECT_TYPE":"PAYLOAD","MEAN_MOTION_DDOT":"0.0000000000000","INCLINATION":"53.0491","PERIAPSIS":"545.724","TLE_LINE2":"2 47990  53.0491 233.6529 0002116  67.7369 106.7184 15.06407775  3586","NORAD_CAT_ID":"47990","GP_ID":"193490711","SITE":"AFETR","SEMIMAJOR_AXIS":"6925.325","MEAN_MOTION":"15.06407775","COUNTRY_CODE":"US","TIME_SYSTEM":"UTC","BSTAR":"-0.00092374000000","TLE_LINE1":"1 47990U 21024P   22008.91667824 -.00014017  00000-0 -92374-3 0  9996"},{"REF_FRAME":"TEME","PERIOD":"95.696","RCS_SIZE":"LARGE","ARG_OF_PERICENTER":"65.7251","OBJECT_ID":"2021-024Q","EPOCH":"2022-01-08T22:00:00.999936","EPHEMERIS_TYPE":"0","APOAPSIS":"553.852","ELEMENT_SET_NO":"999","MEAN_ANOMALY":"317.7479","LAUNCH_DATE":"2021-03-24","REV_AT_EPOCH":"359","MEAN_MOTION_DOT":"-0.00021640","FILE":"3267514","OBJECT_NAME":"STARLINK-2279","CLASSIFICATION_TYPE":"U","RA_OF_ASC_NODE":"248.1178","ECCENTRICITY":"0.00023380","TLE_LINE2":"2 47991  53.0528 248.1178 0002338  65.7251 317.7479 15.04764262  3590","NORAD_CAT_ID":"47991","PERIAPSIS":"550.611","MEAN_MOTION_DDOT":"0.0000000000000","INCLINATION":"53.0528","MEAN_ELEMENT_THEORY":"SGP4","OBJECT_TYPE":"PAYLOAD","DECAY_DATE":null,"CENTER_NAME":"EARTH","TIME_SYSTEM":"UTC","BSTAR":"-0.00150320000000","TLE_LINE1":"1 47991U 21024Q   22008.91667824 -.00021640  00000-0 -15032-2 0  9992","COUNTRY_CODE":"US","MEAN_MOTION":"15.04764262","SEMIMAJOR_AXIS":"6930.366","GP_ID":"193491463","SITE":"AFETR"},{"MEAN_ANOMALY":"345.8057","APOAPSIS":"549.025","EPHEMERIS_TYPE":"0","ELEMENT_SET_NO":"999","EPOCH":"2022-01-08T22:00:00.999936","OBJECT_ID":"2021-024R","ARG_OF_PERICENTER":"58.6504","REF_FRAME":"TEME","RCS_SIZE":"LARGE","PERIOD":"95.592","RA_OF_ASC_NODE":"243.6327","ECCENTRICITY":"0.00026200","FILE":"3267514","OBJECT_NAME":"STARLINK-2229","CLASSIFICATION_TYPE":"U","LAUNCH_DATE":"2021-03-24","MEAN_MOTION_DOT":"-0.00019765","REV_AT_EPOCH":"359","CENTER_NAME":"EARTH","DECAY_DATE":null,"OBJECT_TYPE":"PAYLOAD","MEAN_ELEMENT_THEORY":"SGP4","INCLINATION":"53.0538","MEAN_MOTION_DDOT":"0.0000000000000","PERIAPSIS":"545.397","TLE_LINE2":"2 47992  53.0538 243.6327 0002620  58.6504 345.8057 15.06400847  3596","NORAD_CAT_ID":"47992","SITE":"AFETR","GP_ID":"193491213","SEMIMAJOR_AXIS":"6925.346","MEAN_MOTION":"15.06400847","COUNTRY_CODE":"US","TIME_SYSTEM":"UTC","BSTAR":"-0.00131150000000","TLE_LINE1":"1 47992U 21024R   22008.91667824 -.00019765  00000-0 -13115-2 0  9998"},{"LAUNCH_DATE":"2021-03-24","MEAN_MOTION_DOT":"0.00000242","REV_AT_EPOCH":"4590","RA_OF_ASC_NODE":"283.6075","ECCENTRICITY":"0.00018720","FILE":"3267514","OBJECT_NAME":"STARLINK-2273","CLASSIFICATION_TYPE":"U","OBJECT_ID":"2021-024S","ARG_OF_PERICENTER":"68.8311","REF_FRAME":"TEME","RCS_SIZE":"LARGE","PERIOD":"95.592","MEAN_ANOMALY":"291.2878","APOAPSIS":"548.518","EPHEMERIS_TYPE":"0","ELEMENT_SET_NO":"999","EPOCH":"2022-01-08T22:10:49.265184","COUNTRY_CODE":"US","TIME_SYSTEM":"UTC","BSTAR":"0.00003518900000","TLE_LINE1":"1 47993U 21024S   22008.92418131  .00000242  00000-0  35189-4 0  9990","SITE":"AFETR","GP_ID":"193489961","SEMIMAJOR_AXIS":"6925.357","MEAN_MOTION":"15.06397282","PERIAPSIS":"545.925","TLE_LINE2":"2 47993  53.0566 283.6075 0001872  68.8311 291.2878 15.06397282 45903","NORAD_CAT_ID":"47993","CENTER_NAME":"EARTH","DECAY_DATE":null,"MEAN_ELEMENT_THEORY":"SGP4","OBJECT_TYPE":"PAYLOAD","INCLINATION":"53.0566","MEAN_MOTION_DDOT":"0.0000000000000"},{"TLE_LINE1":"1 47994U 21024T   22008.53023936  .00001743  00000-0  13591-3 0  9992","BSTAR":"0.00013591000000","TIME_SYSTEM":"UTC","COUNTRY_CODE":"US","MEAN_MOTION":"15.06404000","SEMIMAJOR_AXIS":"6925.336","SITE":"AFETR","GP_ID":"193466854","NORAD_CAT_ID":"47994","TLE_LINE2":"2 47994  53.0561 300.3652 0002168  53.1412 306.9775 15.06404000 45115","PERIAPSIS":"545.700","MEAN_MOTION_DDOT":"0.0000000000000","INCLINATION":"53.0561","MEAN_ELEMENT_THEORY":"SGP4","OBJECT_TYPE":"PAYLOAD","DECAY_DATE":null,"CENTER_NAME":"EARTH","REV_AT_EPOCH":"4511","MEAN_MOTION_DOT":"0.00001743","LAUNCH_DATE":"2021-03-24","CLASSIFICATION_TYPE":"U","FILE":"3267399","OBJECT_NAME":"STARLINK-2290","ECCENTRICITY":"0.00021680","RA_OF_ASC_NODE":"300.3652","PERIOD":"95.592","RCS_SIZE":"LARGE","REF_FRAME":"TEME","ARG_OF_PERICENTER":"53.1412","OBJECT_ID":"2021-024T","EPOCH":"2022-01-08T12:43:32.680704","ELEMENT_SET_NO":"999","APOAPSIS":"548.703","EPHEMERIS_TYPE":"0","MEAN_ANOMALY":"306.9775"},{"CLASSIFICATION_TYPE":"U","FILE":"3267514","OBJECT_NAME":"STARLINK-2309","ECCENTRICITY":"0.00023890","RA_OF_ASC_NODE":"263.6774","REV_AT_EPOCH":"4613","MEAN_MOTION_DOT":"-0.00001190","LAUNCH_DATE":"2021-03-24","ELEMENT_SET_NO":"999","APOAPSIS":"548.867","EPHEMERIS_TYPE":"0","EPOCH":"2022-01-08T21:45:34.883136","MEAN_ANOMALY":"299.6941","PERIOD":"95.592","RCS_SIZE":"LARGE","REF_FRAME":"TEME","OBJECT_ID":"2021-024U","ARG_OF_PERICENTER":"60.4286","MEAN_MOTION":"15.06400209","GP_ID":"193490963","SITE":"AFETR","SEMIMAJOR_AXIS":"6925.348","TLE_LINE1":"1 47995U 21024U   22008.90665374 -.00001190  00000-0 -60981-4 0  9996","BSTAR":"-0.00006098100000","TIME_SYSTEM":"UTC","COUNTRY_CODE":"US","MEAN_ELEMENT_THEORY":"SGP4","OBJECT_TYPE":"PAYLOAD","MEAN_MOTION_DDOT":"0.0000000000000","INCLINATION":"53.0569","CENTER_NAME":"EARTH","DECAY_DATE":null,"NORAD_CAT_ID":"47995","TLE_LINE2":"2 47995  53.0569 263.6774 0002389  60.4286 299.6941 15.06400209 46138","PERIAPSIS":"545.558"},{"SEMIMAJOR_AXIS":"6843.038","SITE":"AFETR","GP_ID":"193491714","MEAN_MOTION":"15.33660715","COUNTRY_CODE":"US","TIME_SYSTEM":"UTC","BSTAR":"0.00035193000000","TLE_LINE1":"1 47996U 21024V   22008.91667824  .00011261  00000-0  35193-3 0  9994","DECAY_DATE":null,"CENTER_NAME":"EARTH","INCLINATION":"53.0411","MEAN_MOTION_DDOT":"0.0000000000000","MEAN_ELEMENT_THEORY":"SGP4","OBJECT_TYPE":"PAYLOAD","PERIAPSIS":"461.942","TLE_LINE2":"2 47996  53.0411 217.5057 0004327  85.0908 128.3325 15.33660715  3626","NORAD_CAT_ID":"47996","RA_OF_ASC_NODE":"217.5057","ECCENTRICITY":"0.00043270","FILE":"3267514","OBJECT_NAME":"STARLINK-2260","CLASSIFICATION_TYPE":"U","LAUNCH_DATE":"2021-03-24","REV_AT_EPOCH":"362","MEAN_MOTION_DOT":"0.00011261","MEAN_ANOMALY":"128.3325","EPOCH":"2022-01-08T22:00:00.999936","EPHEMERIS_TYPE":"0","APOAPSIS":"467.864","ELEMENT_SET_NO":"999","ARG_OF_PERICENTER":"85.0908","OBJECT_ID":"2021-024V","REF_FRAME":"TEME","PERIOD":"93.893","RCS_SIZE":"LARGE"},{"REV_AT_EPOCH":"4563","MEAN_MOTION_DOT":"-0.00000551","LAUNCH_DATE":"2021-03-24","CLASSIFICATION_TYPE":"U","FILE":"3267276","OBJECT_NAME":"STARLINK-2266","ECCENTRICITY":"0.00019360","RA_OF_ASC_NODE":"300.4602","RCS_SIZE":"LARGE","PERIOD":"95.593","REF_FRAME":"TEME","ARG_OF_PERICENTER":"69.4962","OBJECT_ID":"2021-024W","EPOCH":"2022-01-08T12:17:01.346496","ELEMENT_SET_NO":"999","EPHEMERIS_TYPE":"0","APOAPSIS":"548.589","MEAN_ANOMALY":"290.6234","TLE_LINE1":"1 47997U 21024W   22008.51182114 -.00000551  00000-0 -18113-4 0  9991","BSTAR":"-0.00001811300000","TIME_SYSTEM":"UTC","COUNTRY_CODE":"US","MEAN_MOTION":"15.06388597","SEMIMAJOR_AXIS":"6925.384","SITE":"AFETR","GP_ID":"193459630","NORAD_CAT_ID":"47997","TLE_LINE2":"2 47997  53.0560 300.4602 0001936  69.4962 290.6234 15.06388597 45633","PERIAPSIS":"545.908","MEAN_MOTION_DDOT":"0.0000000000000","INCLINATION":"53.0560","OBJECT_TYPE":"PAYLOAD","MEAN_ELEMENT_THEORY":"SGP4","DECAY_DATE":null,"CENTER_NAME":"EARTH"}];
